0 FENGYUN 1C DEB
1 35125U 99025DLD 13281.37708519  .00001158  00000-0  59416-3 0  2127
2 35125 098.2595 131.5313 0066892 347.9420 012.0239 14.15997057294340
0 FENGYUN 1C DEB
1 35125U 99025DLD 13284.34484757  .00001217  00000-0  62315-3 0  2131
2 35125 098.2598 134.2852 0067466 339.5953 020.2523 14.16005408294761
0 FENGYUN 1C DEB
1 35125U 99025DLD 13286.81797278  .00001242  00000-0  63583-3 0  2147
2 35125 098.2595 136.5788 0067547 332.5481 027.2168 14.16012189295116
0 FENGYUN 1C DEB
1 35125U 99025DLD 13289.36174378  .00001330  00000-0  67941-3 0  2151
2 35125 098.2606 138.9417 0066614 325.4222 034.2801 14.16020685295473
0 FENGYUN 1C DEB
1 35125U 99025DLD 13291.41087879  .00001449  00000-0  73849-3 0  2165
2 35125 098.2613 140.8457 0066545 320.0143 039.6268 14.16028764295767
0 FENGYUN 1C DEB
1 35125U 99025DLD 13293.81329795  .00001511  00000-0  76913-3 0  2173
2 35125 098.2587 143.0734 0066755 312.3493 047.2096 14.16037436296104
